[{"OBJECT_NAME":"ORBCOMM FM35","OBJECT_ID":"1999-065F","EPOCH":"2026-03-04T00:56:41.591328","MEAN_MOTION":14.37858752,"ECCENTRICITY":0.000343,"INCLINATION":45.0399,"RA_OF_ASC_NODE":305.8477,"ARG_OF_PERICENTER":271.0739,"MEAN_ANOMALY":88.9717,"EPHEMERIS_TYPE":0,"CLASSIFICATION_TYPE":"U","NORAD_CAT_ID":25985,"ELEMENT_SET_NO":999,"REV_AT_EPOCH":37217,"BSTAR":0.00049732,"MEAN_MOTION_DOT":1.372e-5,"MEAN_MOTION_DDOT":0},{"OBJECT_NAME":"ORBCOMM FM34","OBJECT_ID":"1999-065G","EPOCH":"2026-03-04T00:14:10.677120","MEAN_MOTION":14.37772219,"ECCENTRICITY":0.0002989,"INCLINATION":45.0395,"RA_OF_ASC_NODE":306.4951,"ARG_OF_PERICENTER":213.4571,"MEAN_ANOMALY":146.6089,"EPHEMERIS_TYPE":0,"CLASSIFICATION_TYPE":"U","NORAD_CAT_ID":25986,"ELEMENT_SET_NO":999,"REV_AT_EPOCH":37228,"BSTAR":0.00043577,"MEAN_MOTION_DOT":1.182e-5,"MEAN_MOTION_DDOT":0},{"OBJECT_NAME":"ORBCOMM FM38","OBJECT_ID":"2008-031A","EPOCH":"2026-03-04T04:46:44.267808","MEAN_MOTION":14.82704565,"ECCENTRICITY":0.0003813,"INCLINATION":48.4387,"RA_OF_ASC_NODE":154.8846,"ARG_OF_PERICENTER":81.9681,"MEAN_ANOMALY":278.1668,"EPHEMERIS_TYPE":0,"CLASSIFICATION_TYPE":"U","NORAD_CAT_ID":33060,"ELEMENT_SET_NO":999,"REV_AT_EPOCH":95331,"BSTAR":0.00038852,"MEAN_MOTION_DOT":2.953e-5,"MEAN_MOTION_DDOT":0},{"OBJECT_NAME":"ORBCOMM FM41","OBJECT_ID":"2008-031B","EPOCH":"2026-03-03T16:49:25.570560","MEAN_MOTION":14.82236253,"ECCENTRICITY":0.00031464,"INCLINATION":48.4424,"RA_OF_ASC_NODE":165.9792,"ARG_OF_PERICENTER":59.3823,"MEAN_ANOMALY":93.5054,"EPHEMERIS_TYPE":0,"CLASSIFICATION_TYPE":"U","NORAD_CAT_ID":33061,"ELEMENT_SET_NO":999,"REV_AT_EPOCH":95271,"BSTAR":0.00035617956,"MEAN_MOTION_DOT":2.658e-5,"MEAN_MOTION_DDOT":0},{"OBJECT_NAME":"ORBCOMM FM29","OBJECT_ID":"2008-031C","EPOCH":"2026-03-03T17:30:36.791136","MEAN_MOTION":14.82409704,"ECCENTRICITY":0.00047619,"INCLINATION":48.4374,"RA_OF_ASC_NODE":173.2777,"ARG_OF_PERICENTER":60.9261,"MEAN_ANOMALY":92.4044,"EPHEMERIS_TYPE":0,"CLASSIFICATION_TYPE":"U","NORAD_CAT_ID":33062,"ELEMENT_SET_NO":999,"REV_AT_EPOCH":95263,"BSTAR":0.00038687243,"MEAN_MOTION_DOT":2.918e-5,"MEAN_MOTION_DDOT":0},{"OBJECT_NAME":"ORBCOMM FM39","OBJECT_ID":"2008-031D","EPOCH":"2026-03-03T19:06:57.572352","MEAN_MOTION":14.8079211,"ECCENTRICITY":0.00059354,"INCLINATION":48.4384,"RA_OF_ASC_NODE":200.2281,"ARG_OF_PERICENTER":28.5958,"MEAN_ANOMALY":331.5282,"EPHEMERIS_TYPE":0,"CLASSIFICATION_TYPE":"U","NORAD_CAT_ID":33063,"ELEMENT_SET_NO":999,"REV_AT_EPOCH":95225,"BSTAR":0.00036859171,"MEAN_MOTION_DOT":2.659e-5,"MEAN_MOTION_DDOT":0},{"OBJECT_NAME":"ORBCOMM FM37","OBJECT_ID":"2008-031E","EPOCH":"2026-03-03T18:13:58.152576","MEAN_MOTION":14.80986006,"ECCENTRICITY":0.00043921,"INCLINATION":48.438,"RA_OF_ASC_NODE":188.5232,"ARG_OF_PERICENTER":49.176,"MEAN_ANOMALY":103.6988,"EPHEMERIS_TYPE":0,"CLASSIFICATION_TYPE":"U","NORAD_CAT_ID":33064,"ELEMENT_SET_NO":999,"REV_AT_EPOCH":95250,"BSTAR":0.00036048457,"MEAN_MOTION_DOT":2.609e-5,"MEAN_MOTION_DDOT":0},{"OBJECT_NAME":"ORBCOMM FM40","OBJECT_ID":"2008-031F","EPOCH":"2026-03-03T17:15:22.099392","MEAN_MOTION":14.83620247,"ECCENTRICITY":0.00051905,"INCLINATION":48.44,"RA_OF_ASC_NODE":168.0824,"ARG_OF_PERICENTER":68.0382,"MEAN_ANOMALY":85.0756,"EPHEMERIS_TYPE":0,"CLASSIFICATION_TYPE":"U","NORAD_CAT_ID":33065,"ELEMENT_SET_NO":999,"REV_AT_EPOCH":95267,"BSTAR":0.00042240602,"MEAN_MOTION_DOT":3.306e-5,"MEAN_MOTION_DDOT":0},{"OBJECT_NAME":"VESSELSAT 1","OBJECT_ID":"2011-058C","EPOCH":"2026-03-04T01:28:17.583168","MEAN_MOTION":14.11419036,"ECCENTRICITY":0.0013703,"INCLINATION":19.9629,"RA_OF_ASC_NODE":321.3105,"ARG_OF_PERICENTER":165.0099,"MEAN_ANOMALY":195.0713,"EPHEMERIS_TYPE":0,"CLASSIFICATION_TYPE":"U","NORAD_CAT_ID":37840,"ELEMENT_SET_NO":999,"REV_AT_EPOCH":74306,"BSTAR":7.7005e-5,"MEAN_MOTION_DOT":4.07e-6,"MEAN_MOTION_DDOT":0},{"OBJECT_NAME":"ORBCOMM FM109","OBJECT_ID":"2014-040A","EPOCH":"2026-03-03T11:40:01.269984","MEAN_MOTION":14.58710652,"ECCENTRICITY":0.00011525,"INCLINATION":47.002,"RA_OF_ASC_NODE":231.1854,"ARG_OF_PERICENTER":108.1548,"MEAN_ANOMALY":251.9464,"EPHEMERIS_TYPE":0,"CLASSIFICATION_TYPE":"U","NORAD_CAT_ID":40086,"ELEMENT_SET_NO":999,"REV_AT_EPOCH":61891,"BSTAR":0.00019478796,"MEAN_MOTION_DOT":7.47e-6,"MEAN_MOTION_DDOT":0},{"OBJECT_NAME":"ORBCOMM FM107","OBJECT_ID":"2014-040B","EPOCH":"2026-03-03T18:36:05.480352","MEAN_MOTION":14.58795795,"ECCENTRICITY":6.81e-5,"INCLINATION":47.0035,"RA_OF_ASC_NODE":230.6735,"ARG_OF_PERICENTER":356.3003,"MEAN_ANOMALY":3.7878,"EPHEMERIS_TYPE":0,"CLASSIFICATION_TYPE":"U","NORAD_CAT_ID":40087,"ELEMENT_SET_NO":999,"REV_AT_EPOCH":61903,"BSTAR":0.00026324,"MEAN_MOTION_DOT":1.072e-5,"MEAN_MOTION_DDOT":0},{"OBJECT_NAME":"ORBCOMM FM106","OBJECT_ID":"2014-040C","EPOCH":"2026-03-04T00:47:10.286016","MEAN_MOTION":14.70286447,"ECCENTRICITY":0.0016395,"INCLINATION":47.0612,"RA_OF_ASC_NODE":30.4755,"ARG_OF_PERICENTER":198.0492,"MEAN_ANOMALY":161.9819,"EPHEMERIS_TYPE":0,"CLASSIFICATION_TYPE":"U","NORAD_CAT_ID":40088,"ELEMENT_SET_NO":999,"REV_AT_EPOCH":62170,"BSTAR":0.00029513,"MEAN_MOTION_DOT":1.613e-5,"MEAN_MOTION_DDOT":0},{"OBJECT_NAME":"ORBCOMM FM111","OBJECT_ID":"2014-040D","EPOCH":"2026-03-03T17:30:32.159232","MEAN_MOTION":14.8830041,"ECCENTRICITY":0.0028344,"INCLINATION":46.9992,"RA_OF_ASC_NODE":205.9639,"ARG_OF_PERICENTER":354.9157,"MEAN_ANOMALY":5.1449,"EPHEMERIS_TYPE":0,"CLASSIFICATION_TYPE":"U","NORAD_CAT_ID":40089,"ELEMENT_SET_NO":999,"REV_AT_EPOCH":62886,"BSTAR":0.00051086,"MEAN_MOTION_DOT":4.593e-5,"MEAN_MOTION_DDOT":0},{"OBJECT_NAME":"ORBCOMM FM104","OBJECT_ID":"2014-040E","EPOCH":"2026-03-04T01:13:33.811392","MEAN_MOTION":14.57157033,"ECCENTRICITY":0.001647,"INCLINATION":47.0042,"RA_OF_ASC_NODE":266.136,"ARG_OF_PERICENTER":311.7498,"MEAN_ANOMALY":48.1978,"EPHEMERIS_TYPE":0,"CLASSIFICATION_TYPE":"U","NORAD_CAT_ID":40090,"ELEMENT_SET_NO":999,"REV_AT_EPOCH":61851,"BSTAR":0.00020618,"MEAN_MOTION_DOT":7.69e-6,"MEAN_MOTION_DDOT":0},{"OBJECT_NAME":"ORBCOMM FM103","OBJECT_ID":"2014-040F","EPOCH":"2026-03-03T21:35:10.879872","MEAN_MOTION":14.58698551,"ECCENTRICITY":0.0001226,"INCLINATION":47.0039,"RA_OF_ASC_NODE":230.8026,"ARG_OF_PERICENTER":13.9699,"MEAN_ANOMALY":346.1221,"EPHEMERIS_TYPE":0,"CLASSIFICATION_TYPE":"U","NORAD_CAT_ID":40091,"ELEMENT_SET_NO":999,"REV_AT_EPOCH":60201,"BSTAR":0.00024036,"MEAN_MOTION_DOT":9.61e-6,"MEAN_MOTION_DDOT":0},{"OBJECT_NAME":"ORBCOMM FM114","OBJECT_ID":"2015-081A","EPOCH":"2026-03-03T13:44:29.076864","MEAN_MOTION":14.58718203,"ECCENTRICITY":0.0001266,"INCLINATION":47.0042,"RA_OF_ASC_NODE":141.288,"ARG_OF_PERICENTER":74.5268,"MEAN_ANOMALY":285.5758,"EPHEMERIS_TYPE":0,"CLASSIFICATION_TYPE":"U","NORAD_CAT_ID":41179,"ELEMENT_SET_NO":999,"REV_AT_EPOCH":54233,"BSTAR":0.00020306,"MEAN_MOTION_DOT":7.86e-6,"MEAN_MOTION_DDOT":0},{"OBJECT_NAME":"ORBCOMM FM119","OBJECT_ID":"2015-081B","EPOCH":"2026-03-04T02:52:11.990208","MEAN_MOTION":14.58662737,"ECCENTRICITY":9.18e-5,"INCLINATION":47.0009,"RA_OF_ASC_NODE":48.0604,"ARG_OF_PERICENTER":218.6911,"MEAN_ANOMALY":141.3909,"EPHEMERIS_TYPE":0,"CLASSIFICATION_TYPE":"U","NORAD_CAT_ID":41180,"ELEMENT_SET_NO":999,"REV_AT_EPOCH":54366,"BSTAR":0.0002522,"MEAN_MOTION_DOT":1.016e-5,"MEAN_MOTION_DDOT":0}]
